ORBCOMM FM05            
1 25117U 97084F   25080.94374704  .00006117  00000+0  17585-2 0  9999
2 25117  45.0141  66.8274 0000546 245.7037 114.3757 14.45473226427985
ORBCOMM FM06            
1 25118U 97084G   25081.22307742  .00007330  00000+0  20919-2 0  9993
2 25118  45.0134  65.3217 0001312 289.4945  85.1010 14.45631272428967
ORBCOMM FM07            
1 25119U 97084H   25080.40352686  .00004607  00000+0  13318-2 0  9999
2 25119  45.0128  70.0167 0000489 140.3870 219.7017 14.45578030428812
ORBCOMM FM03            
1 25158U 98007B   25080.87966582  .00003208  00000+0  11763-2 0  9993
2 25158 107.9679 316.2946 0044544  39.6674 320.7710 14.34174371411527
ORBCOMM FM04            
1 25159U 98007C   25080.87922903  .00002722  00000+0  10023-2 0  9991
2 25159 107.9664 319.4555 0040375  36.8067 323.5833 14.34431457411704
ORBCOMM FM17            
1 25413U 98046A   25080.88724607  .00003264  00000+0  11882-2 0  9995
2 25413  44.9945 309.5533 0002613 121.3321 238.7782 14.34834696390631
ORBCOMM FM18            
1 25414U 98046B   25080.83883997  .00004525  00000+0  15221-2 0  9991
2 25414  44.9915 229.4831 0005906 199.6134 160.4488 14.38182317391677
ORBCOMM FM19            
1 25415U 98046C   25080.87579466  .00004684  00000+0  15803-2 0  9991
2 25415  44.9926 231.1695 0004678 193.4514 334.4581 14.37988361391632
